[{"OBJECT_NAME":"YAOGAN-36 02A","OBJECT_ID":"2022-133A","EPOCH":"2026-03-10T00:04:36.049728","MEAN_MOTION":15.23118612,"ECCENTRICITY":0.00301484,"INCLINATION":35.0077,"RA_OF_ASC_NODE":23.5078,"ARG_OF_PERICENTER":29.898,"MEAN_ANOMALY":330.345,"EPHEMERIS_TYPE":0,"CLASSIFICATION_TYPE":"U","NORAD_CAT_ID":54042,"ELEMENT_SET_NO":999,"REV_AT_EPOCH":18962,"BSTAR":0.00070143583,"MEAN_MOTION_DOT":0.00017174,"MEAN_MOTION_DDOT":0},{"OBJECT_NAME":"STARLINK-31862","OBJECT_ID":"2024-093E","EPOCH":"2026-03-09T10:57:28.356480","MEAN_MOTION":15.27569338,"ECCENTRICITY":0.00017431,"INCLINATION":43.0057,"RA_OF_ASC_NODE":209.8847,"ARG_OF_PERICENTER":271.3935,"MEAN_ANOMALY":88.6717,"EPHEMERIS_TYPE":0,"CLASSIFICATION_TYPE":"U","NORAD_CAT_ID":59786,"ELEMENT_SET_NO":999,"REV_AT_EPOCH":10266,"BSTAR":-3.1586818e-5,"MEAN_MOTION_DOT":-1.131e-5,"MEAN_MOTION_DDOT":0}]
